{"type": "FeatureCollection", "features": [ {"type": "Feature", "properties": {"norad_id": 30081, "name": "FENGYUN 1C DEB", "group": "fengyun-1c-debris", "lat": -57.99974807613205, "lon": 160.0852517565035, "alt_km": 884.7835858047829, "timestamp": "2025-12-24T16:52:41.805723+00:00", "meta": {"OBJECT_NAME": "FENGYUN 1C DEB", "OBJECT_ID": "1999-025QJ", "EPOCH": "2025-12-23T22:50:53.294208", "MEAN_MOTION": 13.98293259, "ECCENTRICITY": 0.0075712, "INCLINATION": 98.9238, "RA_OF_ASC_NODE": 353.9174, "ARG_OF_PERICENTER": 308.0479, "MEAN_ANOMALY": 112.186, "EPHEMERIS_TYPE": 0, "CLASSIFICATION_TYPE": "U", "NORAD_CAT_ID": 30081, "ELEMENT_SET_NO": 999, "REV_AT_EPOCH": 96511, "BSTAR": 0.0003164, "MEAN_MOTION_DOT": 4.19e-06, "MEAN_MOTION_DDOT": 0}, "tle": {"line1": "1 30081U 99025QJ  25357.95200572  .00000419  00000+0  31640-3 0  9999", "line2": "2 30081  98.9238 353.9174 0075712 308.0479 112.1860 13.98293259965110"}}, "geometry": {"type": "Point", "coordinates": [160.0852517565035, -57.99974807613205]}}, {"type": "Feature", "properties": {"norad_id": 30082, "name": "FENGYUN 1C DEB", "group": "fengyun-1c-debris", "lat": 59.12067762432966, "lon": 123.40465806923788, "alt_km": 465.25135189773846, "timestamp": "2025-12-24T16:52:41.805733+00:00", "meta": {"OBJECT_NAME": "FENGYUN 1C DEB", "OBJECT_ID": "1999-025QK", "EPOCH": "2025-12-23T13:25:04.311552", "MEAN_MOTION": 15.15568213, "ECCENTRICITY": 0.00702775, "INCLINATION": 98.8196, "RA_OF_ASC_NODE": 287.0286, "ARG_OF_PERICENTER": 130.39, "MEAN_ANOMALY": 230.3491, "EPHEMERIS_TYPE": 0, "CLASSIFICATION_TYPE": "U", "NORAD_CAT_ID": 30082, "ELEMENT_SET_NO": 999, "REV_AT_EPOCH": 1457, "BSTAR": 0.0012376659, "MEAN_MOTION_DOT": 0.00024979, "MEAN_MOTION_DDOT": 0}, "tle": {"line1": "1 30082U 99025QK  25357.55907768  .00024979  00000+0  12377-2 0  9999", "line2": "2 30082  98.8196 287.0286 0070277 130.3900 230.3491 15.15568213 14574"}}, "geometry": {"type": "Point", "coordinates": [123.40465806923788, 59.12067762432966]}}, {"type": "Feature", "properties": {"norad_id": 30086, "name": "FENGYUN 1C DEB", "group": "fengyun-1c-debris", "lat": -80.76368797133229, "lon": 137.43150253452487, "alt_km": 931.476203877789, "timestamp": "2025-12-24T16:52:41.805744+00:00", "meta": {"OBJECT_NAME": "FENGYUN 1C DEB", "OBJECT_ID": "1999-025QP", "EPOCH": "2025-12-23T21:38:27.610080", "MEAN_MOTION": 14.03845404, "ECCENTRICITY": 0.0061951, "INCLINATION": 98.9095, "RA_OF_ASC_NODE": 31.3626, "ARG_OF_PERICENTER": 103.6878, "MEAN_ANOMALY": 75.0202, "EPHEMERIS_TYPE": 0, "CLASSIFICATION_TYPE": "U", "NORAD_CAT_ID": 30086, "ELEMENT_SET_NO": 999, "REV_AT_EPOCH": 96852, "BSTAR": 0.00029655, "MEAN_MOTION_DOT": 4.33e-06, "MEAN_MOTION_DDOT": 0}, "tle": {"line1": "1 30086U 99025QP  25357.90170845  .00000433  00000+0  29655-3 0  9997", "line2": "2 30086  98.9095  31.3626 0061951 103.6878  75.0202 14.03845404968524"}}, "geometry": {"type": "Point", "coordinates": [137.43150253452487, -80.76368797133229]}}, {"type": "Feature", "properties": {"norad_id": 30087, "name": "FENGYUN 1C DEB", "group": "fengyun-1c-debris", "lat": 73.29273215872344, "lon": -119.97076627650362, "alt_km": 609.1518083039209, "timestamp": "2025-12-24T16:52:41.805754+00:00", "meta": {"OBJECT_NAME": "FENGYUN 1C DEB", "OBJECT_ID": "1999-025QQ", "EPOCH": "2025-12-24T01:29:20.326848", "MEAN_MOTION": 14.35724137, "ECCENTRICITY": 0.02303689, "INCLINATION": 98.379, "RA_OF_ASC_NODE": 29.9964, "ARG_OF_PERICENTER": 87.7077, "MEAN_ANOMALY": 303.632, "EPHEMERIS_TYPE": 0, "CLASSIFICATION_TYPE": "U", "NORAD_CAT_ID": 30087, "ELEMENT_SET_NO": 999, "REV_AT_EPOCH": 98858, "BSTAR": 0.00024148674, "MEAN_MOTION_DOT": 8.95e-06, "MEAN_MOTION_DDOT": 0}, "tle": {"line1": "1 30087U 99025QQ  25358.06204082  .00000895  00000+0  24149-3 0  9992", "line2": "2 30087  98.3790  29.9964 0230368  87.7077 303.6320 14.35724137988585"}}, "geometry": {"type": "Point", "coordinates": [-119.97076627650362, 73.29273215872344]}}, {"type": "Feature", "properties": {"norad_id": 30088, "name": "FENGYUN 1C DEB", "group": "fengyun-1c-debris", "lat": 11.175543183025939, "lon": -19.040029533588864, "alt_km": 908.0142750045707, "timestamp": "2025-12-24T16:52:41.805765+00:00", "meta": {"OBJECT_NAME": "FENGYUN 1C DEB", "OBJECT_ID": "1999-025QR", "EPOCH": "2025-12-23T21:03:06.122016", "MEAN_MOTION": 14.3593474, "ECCENTRICITY": 0.0201094, "INCLINATION": 98.3554, "RA_OF_ASC_NODE": 341.8225, "ARG_OF_PERICENTER": 214.0094, "MEAN_ANOMALY": 208.612, "EPHEMERIS_TYPE": 0, "CLASSIFICATION_TYPE": "U", "NORAD_CAT_ID": 30088, "ELEMENT_SET_NO": 999, "REV_AT_EPOCH": 98832, "BSTAR": 0.00026157, "MEAN_MOTION_DOT": 9.06e-06, "MEAN_MOTION_DDOT": 0}, "tle": {"line1": "1 30088U 99025QR  25357.87715419  .00000906  00000+0  26157-3 0  9996", "line2": "2 30088  98.3554 341.8225 0201094 214.0094 208.6120 14.35934740988325"}}, "geometry": {"type": "Point", "coordinates": [-19.040029533588864, 11.175543183025939]}}, {"type": "Feature", "properties": {"norad_id": 30089, "name": "FENGYUN 1C DEB", "group": "fengyun-1c-debris", "lat": 18.226736001938537, "lon": 87.33446801617069, "alt_km": 739.4471111820385, "timestamp": "2025-12-24T16:52:41.805775+00:00", "meta": {"OBJECT_NAME": "FENGYUN 1C DEB", "OBJECT_ID": "1999-025QS", "EPOCH": "2025-12-24T05:05:23.460576", "MEAN_MOTION": 14.30318413, "ECCENTRICITY": 0.0073822, "INCLINATION": 98.9038, "RA_OF_ASC_NODE": 263.8729, "ARG_OF_PERICENTER": 176.3179, "MEAN_ANOMALY": 337.5608, "EPHEMERIS_TYPE": 0, "CLASSIFICATION_TYPE": "U", "NORAD_CAT_ID": 30089, "ELEMENT_SET_NO": 999, "REV_AT_EPOCH": 98643, "BSTAR": 0.00021156602, "MEAN_MOTION_DOT": 5.19e-06, "MEAN_MOTION_DDOT": 0}, "tle": {"line1": "1 30089U 99025QS  25358.21207709  .00000519  00000+0  21157-3 0  9999", "line2": "2 30089  98.9038 263.8729 0073822 176.3179 337.5608 14.30318413986432"}}, "geometry": {"type": "Point", "coordinates": [87.33446801617069, 18.226736001938537]}}, {"type": "Feature", "properties": {"norad_id": 30090, "name": "FENGYUN 1C DEB", "group": "fengyun-1c-debris", "lat": 0.8637800503466198, "lon": 172.58983079083984, "alt_km": 787.9694995960263, "timestamp": "2025-12-24T16:52:41.805786+00:00", "meta": {"OBJECT_NAME": "FENGYUN 1C DEB", "OBJECT_ID": "1999-025QT", "EPOCH": "2025-12-23T23:08:32.223840", "MEAN_MOTION": 14.29049716, "ECCENTRICITY": 0.0058167, "INCLINATION": 99.4091, "RA_OF_ASC_NODE": 171.9362, "ARG_OF_PERICENTER": 79.9544, "MEAN_ANOMALY": 81.9573, "EPHEMERIS_TYPE": 0, "CLASSIFICATION_TYPE": "U", "NORAD_CAT_ID": 30090, "ELEMENT_SET_NO": 999, "REV_AT_EPOCH": 98430, "BSTAR": 0.00033772, "MEAN_MOTION_DOT": 8.21e-06, "MEAN_MOTION_DDOT": 0}, "tle": {"line1": "1 30090U 99025QT  25357.96426185  .00000821  00000+0  33772-3 0  9995", "line2": "2 30090  99.4091 171.9362 0058167  79.9544  81.9573 14.29049716984300"}}, "geometry": {"type": "Point", "coordinates": [172.58983079083984, 0.8637800503466198]}}, {"type": "Feature", "properties": {"norad_id": 30092, "name": "FENGYUN 1C DEB", "group": "fengyun-1c-debris", "lat": 35.23651934078222, "lon": 172.07211165196236, "alt_km": 817.9235903616218, "timestamp": "2025-12-24T16:52:41.805796+00:00", "meta": {"OBJECT_NAME": "FENGYUN 1C DEB", "OBJECT_ID": "1999-025QV", "EPOCH": "2025-12-24T00:37:38.211744", "MEAN_MOTION": 14.39177492, "ECCENTRICITY": 0.00828083, "INCLINATION": 98.9231, "RA_OF_ASC_NODE": 177.7396, "ARG_OF_PERICENTER": 216.8578, "MEAN_ANOMALY": 272.7693, "EPHEMERIS_TYPE": 0, "CLASSIFICATION_TYPE": "U", "NORAD_CAT_ID": 30092, "ELEMENT_SET_NO": 999, "REV_AT_EPOCH": 98911, "BSTAR": 0.00053284863, "MEAN_MOTION_DOT": 1.669e-05, "MEAN_MOTION_DDOT": 0}, "tle": {"line1": "1 30092U 99025QV  25358.02613671  .00001669  00000+0  53285-3 0  9995", "line2": "2 30092  98.9231 177.7396 0082808 216.8578 272.7693 14.39177492989112"}}, "geometry": {"type": "Point", "coordinates": [172.07211165196236, 35.23651934078222]}}, {"type": "Feature", "properties": {"norad_id": 30093, "name": "FENGYUN 1C DEB", "group": "fengyun-1c-debris", "lat": 80.30920805546027, "lon": 167.6854285104749, "alt_km": 778.6866237649829, "timestamp": "2025-12-24T16:52:41.805806+00:00", "meta": {"OBJECT_NAME": "FENGYUN 1C DEB", "OBJECT_ID": "1999-025QW", "EPOCH": "2025-12-24T03:56:06.506016", "MEAN_MOTION": 14.43755798, "ECCENTRICITY": 0.00694948, "INCLINATION": 98.8672, "RA_OF_ASC_NODE": 233.2122, "ARG_OF_PERICENTER": 303.5595, "MEAN_ANOMALY": 220.6613, "EPHEMERIS_TYPE": 0, "CLASSIFICATION_TYPE": "U", "NORAD_CAT_ID": 30093, "ELEMENT_SET_NO": 999, "REV_AT_EPOCH": 98968, "BSTAR": 0.00091439003, "MEAN_MOTION_DOT": 3.153e-05, "MEAN_MOTION_DDOT": 0}, "tle": {"line1": "1 30093U 99025QW  25358.16396419  .00003153  00000+0  91439-3 0  9992", "line2": "2 30093  98.8672 233.2122 0069494 303.5595 220.6613 14.43755798989687"}}, "geometry": {"type": "Point", "coordinates": [167.6854285104749, 80.30920805546027]}}, {"type": "Feature", "properties": {"norad_id": 30095, "name": "FENGYUN 1C DEB", "group": "fengyun-1c-debris", "lat": 59.395977420115365, "lon": -94.2986337483949, "alt_km": 681.8439782101295, "timestamp": "2025-12-24T16:52:41.805818+00:00", "meta": {"OBJECT_NAME": "FENGYUN 1C DEB", "OBJECT_ID": "1999-025QY", "EPOCH": "2025-12-24T05:15:55.528416", "MEAN_MOTION": 14.82418607, "ECCENTRICITY": 0.01636468, "INCLINATION": 99.2213, "RA_OF_ASC_NODE": 281.0854, "ARG_OF_PERICENTER": 296.3193, "MEAN_ANOMALY": 62.1287, "EPHEMERIS_TYPE": 0, "CLASSIFICATION_TYPE": "U", "NORAD_CAT_ID": 30095, "ELEMENT_SET_NO": 999, "REV_AT_EPOCH": 99505, "BSTAR": 0.0021765333, "MEAN_MOTION_DOT": 0.00022035, "MEAN_MOTION_DDOT": 0}, "tle": {"line1": "1 30095U 99025QY  25358.21939269  .00022035  00000+0  21765-2 0  9990", "line2": "2 30095  99.2213 281.0854 0163646 296.3193  62.1287 14.82418607995057"}}, "geometry": {"type": "Point", "coordinates": [-94.2986337483949, 59.395977420115365]}}]}